H1 CPF 01  gfz 2022 12 19 01  8531 terrasarx 
H2 0702601  6201 31698    2022 12 19 00 59 42 2022 12 24 00 00 42   120 1 1  0 0 0
H9
10 0 59934  29502.000000  0    3337220.578  -2946092.113  -5264490.274
10 0 59934  29622.000000  0    2654853.999  -2630664.997  -5793651.458
10 0 59934  29742.000000  0    1932447.703  -2257298.072  -6221566.220
10 0 59934  29862.000000  0    1183527.384  -1831920.734  -6540845.106
10 0 59934  29982.000000  0     421939.984  -1361586.169  -6745986.968
10 0 59934  30102.000000  0    -338399.233   -854353.743  -6833463.253
10 0 59934  30222.000000  0   -1083755.406   -319152.618  -6801771.246
10 0 59934  30342.000000  0   -1800816.352    234371.911  -6651456.967
10 0 59934  30462.000000  0   -2476924.910    796027.938  -6385105.921
10 0 59934  30582.000000  0   -3100297.252   1355259.494  -6007303.433
10 0 59934  30702.000000  0   -3660225.678   1901340.057  -5524564.836
10 0 59934  30822.000000  0   -4147264.538   2423574.715  -4945235.052
10 0 59934  30942.000000  0   -4553394.545   2911508.344  -4279355.199
10 0 59934  31062.000000  0   -4872160.951   3355134.382  -3538498.232
10 0 59934  31182.000000  0   -5098784.096   3745100.979  -2735577.250
10 0 59934  31302.000000  0   -5230239.114   4072910.424  -1884625.579
10 0 59934  31422.000000  0   -5265302.093   4331105.708  -1000553.445
10 0 59934  31542.000000  0   -5204561.521   4513440.335    -98884.359
10 0 59934  31662.000000  0   -5050392.982   4615026.752    804523.385
10 0 59934  31782.000000  0   -4806896.881   4632457.745   1693764.842
10 0 59934  31902.000000  0   -4479800.612   4563897.593   2553177.880
10 0 59934  32022.000000  0   -4076327.578   4409141.895   3367627.422
10 0 59934  32142.000000  0   -3605037.259   4169643.926   4122778.521
10 0 59934  32262.000000  0   -3075641.230   3848506.978   4805352.598
10 0 59934  32382.000000  0   -2498799.205   3450443.460   5403362.747
10 0 59934  32502.000000  0   -1885899.532   2981701.633   5906322.739
10 0 59934  32622.000000  0   -1248829.939   2449962.321   6305426.669
10 0 59934  32742.000000  0    -599743.753   1864207.521   6593696.205
10 0 59934  32862.000000  0      49171.596   1234565.595   6766095.652
10 0 59934  32982.000000  0     685923.294    572134.148   6819615.199
10 0 59934  33102.000000  0    1298933.970   -111215.577   6753319.449
10 0 59934  33222.000000  0    1877251.022   -803050.473   6568363.433
10 0 59934  33342.000000  0    2410741.863  -1490601.326   6267974.122
10 0 59934  33462.000000  0    2890272.325  -2160997.606   5857398.649
10 0 59934  33582.000000  0    3307865.863  -2801509.310   5343818.093
10 0 59934  33702.000000  0    3656839.456  -3399790.402   4736227.824
10 0 59934  33822.000000  0    3931914.793  -3944120.268   4045285.654
10 0 59934  33942.000000  0    4129302.179  -4423638.139   3283128.513
10 0 59934  34062.000000  0    4246754.536  -4828565.348   2463160.631
10 0 59934  34182.000000  0    4283590.816  -5150409.952   1599815.949
10 0 59934  34302.000000  0    4240687.095  -5382148.114    708299.141
10 0 59934  34422.000000  0    4120435.081  -5518377.257   -195689.197
10 0 59934  34542.000000  0    3926670.904  -5555438.185  -1096236.419
10 0 59934  34662.000000  0    3664573.789  -5491502.912  -1977507.757
10 0 59934  34782.000000  0    3340537.646  -5326623.921  -2824032.242
10 0 59934  34902.000000  0    2962020.483  -5062746.023  -3620980.219
10 0 59934  35022.000000  0    2537373.799  -4703679.855  -4354425.798
10 0 59934  35142.000000  0    2075657.354  -4255038.906  -5011588.600
10 0 59934  35262.000000  0    1586445.346  -3724141.640  -5581050.489
10 0 59934  35382.000000  0    1079628.725  -3119883.333  -6052944.483
10 0 59934  35502.000000  0     565216.403  -2452581.061  -6419115.289
10 0 59934  35622.000000  0      53139.547  -1733793.452  -6673249.443
10 0 59934  35742.000000  0    -446936.360   -976118.960  -6810973.487
10 0 59934  35862.000000  0    -925788.756   -192976.788  -6829920.931
10 0 59934  35982.000000  0   -1374803.716    601626.107  -6729767.718
10 0 59934  36102.000000  0   -1786127.406   1393338.917  -6512236.666
10 0 59934  36222.000000  0   -2152800.108   2167719.797  -6181070.858
10 0 59934  36342.000000  0   -2468872.734   2910493.157  -5741977.181
10 0 59934  36462.000000  0   -2729503.876   3607810.143  -5202538.261
10 0 59934  36582.000000  0   -2931035.750   4246506.948  -4572093.430
10 0 59934  36702.000000  0   -3071047.880   4814357.081  -3861587.475
10 0 59934  36822.000000  0   -3148385.527   5300310.579  -3083388.588
10 0 59934  36942.000000  0   -3163162.866   5694715.389  -2251080.691
10 0 59934  37062.000000  0   -3116741.805   5989518.917  -1379230.666
10 0 59934  37182.000000  0   -3011683.623   6178441.392   -483131.961
10 0 59934  37302.000000  0   -2851676.444   6257115.122    421466.577
10 0 59934  37422.000000  0   -2641440.921   6223190.403   1318644.738
10 0 59934  37542.000000  0   -2386611.254   6076398.558   2192602.913
10 0 59934  37662.000000  0   -2093597.269   5818570.545   3027949.648
10 0 59934  37782.000000  0   -1769432.891   5453613.852   3809979.448
10 0 59934  37902.000000  0   -1421614.403   4987448.626   4524936.434
10 0 59934  38022.000000  0   -1057931.829   4427904.042   5160259.109
10 0 59934  38142.000000  0    -686296.625   3784577.558   5704800.241
10 0 59934  38262.000000  0    -314572.707   3068661.936   6149018.943
10 0 59934  38382.000000  0      49587.569   2292742.418   6485142.596
10 0 59934  38502.000000  0     398898.650   1470570.737   6707296.487
10 0 59934  38622.000000  0     726585.951    616817.864   6811601.072
10 0 59934  38742.000000  0    1026515.692   -253188.389   6796234.352
10 0 59934  38862.000000  0    1293308.736  -1123737.306   6661462.705
10 0 59934  38982.000000  0    1522436.957  -1979018.674   6409636.996
10 0 59934  39102.000000  0    1710300.442  -2803409.594   6045154.786
10 0 59934  39222.000000  0    1854284.388  -3581761.554   5574388.286
10 0 59934  39342.000000  0    1952794.461  -4299681.856   5005577.936
10 0 59934  39462.000000  0    2005270.582  -4943803.358   4348693.725
10 0 59934  39582.000000  0    2012179.896  -5502040.856   3615266.641
10 0 59934  39702.000000  0    1974986.838  -5963827.520   2818187.930
10 0 59934  39822.000000  0    1896100.242  -6320323.212   1971481.675
10 0 59934  39942.000000  0    1778801.503  -6564591.282   1090055.653
10 0 59934  40062.000000  0    1627153.445  -6691740.615    189433.863
10 0 59934  40182.000000  0    1445891.831  -6699028.638   -714524.247
10 0 59934  40302.000000  0    1240301.994  -6585920.720  -1605914.720
10 0 59934  40422.000000  0    1016083.766  -6354101.049  -2469077.685
10 0 59934  40542.000000  0     779209.571  -6007440.303  -3288878.582
10 0 59934  40662.000000  0     535780.959  -5551920.424  -4050976.938
10 0 59934  40782.000000  0     291883.997  -4995519.011  -4742077.356
10 0 59934  40902.000000  0      53448.184  -4348056.765  -5350156.999
10 0 59934  41022.000000  0    -173887.393  -3621013.179  -5864667.423
10 0 59934  41142.000000  0    -384898.103  -2827313.888  -6276707.687
10 0 59934  41262.000000  0    -574885.496  -1981095.352  -6579166.981
10 0 59934  41382.000000  0    -739775.057  -1097451.499  -6766835.937
10 0 59934  41502.000000  0    -876198.315   -192166.882  -6836487.456
10 0 59934  41622.000000  0    -981557.965    718560.852  -6786925.518
10 0 59934  41742.000000  0   -1054075.578   1618403.213  -6619002.693
10 0 59934  41862.000000  0   -1092821.138   2491186.165  -6335606.873
10 0 59934  41982.000000  0   -1097723.849   3321174.157  -5941618.138
10 0 59934  42102.000000  0   -1069564.536   4093351.267  -5443834.131
10 0 59934  42222.000000  0   -1009948.993   4793692.734  -4850863.617
10 0 59934  42342.000000  0    -921263.345   5409424.252  -4172989.212
10 0 59934  42462.000000  0    -806611.647   5929262.805  -3421998.485
10 0 59934  42582.000000  0    -669736.456   6343633.120  -2610986.560
10 0 59934  42702.000000  0    -514923.910   6644856.194  -1754132.877
10 0 59934  42822.000000  0    -346895.666   6827303.970   -866453.998
10 0 59934  42942.000000  0    -170689.485   6887515.823     36461.935
10 0 59934  43062.000000  0       8468.745   6824273.482    938734.818
10 0 59934  43182.000000  0     185297.650   6638631.089   1824481.028
10 0 59934  43302.000000  0     354593.636   6333897.398   2678102.777
10 0 59934  43422.000000  0     511361.764   5915572.695   3484569.802
10 0 59934  43542.000000  0     650941.603   5391243.957   4229689.325
10 0 59934  43662.000000  0     769125.497   4770441.308   4900362.410
10 0 59934  43782.000000  0     862263.315   4064449.268   5484816.214
10 0 59934  43902.000000  0     927354.986   3286092.796   5972804.921
10 0 59934  44022.000000  0     962127.305   2449496.742   6355785.583
10 0 59934  44142.000000  0     965092.349   1569823.202   6627061.982
10 0 59934  44262.000000  0     935588.037    662992.500   6781895.811
10 0 59934  44382.000000  0     873799.794   -254606.018   6817583.284
10 0 59934  44502.000000  0     780762.769  -1166408.777   6733500.366
10 0 59934  44622.000000  0     658344.415  -2055977.025   6531113.803
10 0 59934  44742.000000  0     509207.590  -2907293.103   6213957.668
10 0 59934  44862.000000  0     336754.838  -3705051.048   5787574.538
10 0 59934  44982.000000  0     145055.377  -4434932.622   5259421.825
10 0 59934  45102.000000  0     -61243.535  -5083867.289   4638748.610
10 0 59934  45222.000000  0    -277020.301  -5640274.676   3936441.455
10 0 59934  45342.000000  0    -496796.970  -6094281.992   3164836.689
10 0 59934  45462.000000  0    -714867.987  -6437909.378   2337504.497
10 0 59934  45582.000000  0    -925435.495  -6665219.057   1469008.085
10 0 59934  45702.000000  0   -1122749.467  -6772427.155    574643.747
10 0 59934  45822.000000  0   -1301249.927  -6757972.222   -329837.550
10 0 59934  45942.000000  0   -1455704.678  -6622536.872  -1228516.955
99
